SL-14 R/B               
1 16792U 86046B   25362.40929847  .00000759  00000+0  84611-4 0  9994
2 16792  82.4819 147.5156 0024605 102.9428 257.4538 14.85502831115829
SL-14 R/B               
1 16882U 86055B   25362.02021177  .00000657  00000+0  73032-4 0  9993
2 16882  82.5192 194.0138 0018230 205.3820 308.4471 14.85546145108722
AJISAI (EGS)            
1 16908U 86061A   25362.49105624 -.00000089  00000+0  58459-4 0  9996
2 16908  50.0111 312.2834 0011318 105.4067 359.0647 12.44514458459138
COSMOS 1812             
1 17295U 87003A   25362.21240502  .00141076  00000+0  79111-3 0  9996
2 17295  82.4868 275.2295 0006074  65.1708 295.0189 15.78858994133092
SL-14 R/B               
1 17567U 87024B   25362.46856483  .00000799  00000+0  88300-4 0  9996
2 17567  82.5282 159.6786 0019335 133.5151 226.7676 14.86042010 77553
COSMOS 1833             
1 17589U 87027A   25362.50416286  .00000313  00000+0  19329-3 0  9997
2 17589  70.9170 115.6390 0023278 309.7818  50.1253 14.13030516   267
SL-16 R/B               
1 17590U 87027B   25362.47233259 -.00000176  00000+0 -63736-4 0  9993
2 17590  71.0036  66.5676 0007155 243.3048 116.7343 14.17156308  5252
SL-14 R/B               
1 17912U 87038B   25362.49425285  .00000695  00000+0  77901-4 0  9990
2 17912  82.5009   3.8602 0020395  43.5735 316.7087 14.85277021 68666
COSMOS 1844             
1 17973U 87041A   25362.47306216  .00000355  00000+0  20904-3 0  9994
2 17973  70.8972 184.3866 0029338 132.2030 228.1589 14.14534152993516
SL-14 R/B               
1 18153U 87055B   25362.21394174  .00000621  00000+0  68921-4 0  9990
2 18153  82.4988  56.4044 0019258 248.2936 111.6230 14.85537484 59323
COSMOS 1867             
1 18187U 87060A   25362.46161069  .00000033  00000+0  50189-4 0  9999
2 18187  65.0094 146.1747 0013699 272.6394  87.3122 14.31488874  9743
SL-14 R/B               
1 18749U 88001B   25362.47402612  .00000633  00000+0  70381-4 0  9994
2 18749  82.5132 262.3494 0019521 111.9063 248.4231 14.85440712 31454
